    argperigee => '353.3852',
    epoch => '2317.95818464',
    bstar => '0.00040674',
    number => '95046',
    raan => '199.5493',
    mm1 => '3.084e-05',
    meanmotion => '14.79581826',
    mm2 => '0',
    id => '23657',
    meananomaly => '6.7026',
    eccentricity => '0.0025274',
    inclination => '82.5308'
  },
  ISS => {
    orbit => '22746',
    elset => '380',
    argperigee => '136.5767',
    epoch => '2318.81134259',
    bstar => '0.00043033',
    number => '98067',
    raan => '16.7116',
    mm1 => '0.000338',
    meanmotion => '15.58908605',
    mm2 => '0',
    id => '25544',
    meananomaly => '6.2392',
    eccentricity => '0.0013868',
    inclination => '51.6401'
  },
  'MET-2/21' => {
    orbit => '46468',
    elset => '441',
    argperigee => '257.4574',
    epoch => '2317.62602189',
    bstar => '9.6316e-05',
    number => '93055',
    raan => '291.7858',
    mm1 => '1.21e-06',
    meanmotion => '13.83519672',
    mm2 => '0',
    id => '22782',
    meananomaly => '102.4265',
    eccentricity => '0.0020945',
    inclination => '82.5462'
  },
  'WO-39' => {
    orbit => '14678',
    elset => '692',
    argperigee => '189.1',
    epoch => '2318.89177936',
    bstar => '0.00047363',
    number => '4',
    raan => '353.1456',
    mm1 => '1.374e-05',
    meanmotion => '14.37666115',
    mm2 => '0',
    id => '26061',
    meananomaly => '170.9546',
    eccentricity => '0.0035248',
    inclination => '100.2209'
  },
  'FO-20' => {
    orbit => '59812',
    elset => '451',
    argperigee => '222.6662',
    epoch => '2317.95151252',
    bstar => '7.0446e-06',
    number => '90013',
    raan => '293.9296',
    mm1 => '-3.1e-07',
    meanmotion => '12.83325138',
    mm2 => '0',
    id => '20480',
    meananomaly => '133.1308',
    eccentricity => '0.053981',
    inclination => '99.0312'
  },
  'AO-10' => {
    orbit => '14584',
    elset => '902',
    argperigee => '299.1292',
    epoch => '2308.03923529',
    bstar => '0.0001',
    number => '83058',
    raan => '182.2207',
    mm1 => '2.94e-06',
    meanmotion => '2.05865245',
    mm2 => '0',
    id => '14129',
    meananomaly => '13.91',
    eccentricity => '0.6065953',
    inclination => '25.7473'
  },
  'LO-19' => {
    orbit => '66877',
    elset => '899',
    argperigee => '130.9408',
    epoch => '2317.67849461',
    bstar => '0.00020139',
    number => '90005',
    raan => '17.7517',
    mm1 => '4.95e-06',
    meanmotion => '14.31658887',
    mm2 => '0',
    id => '20442',
    meananomaly => '229.284',
    eccentricity => '0.0012284',
    inclination => '98.3622'
  },
  'SO-41' => {
    orbit => '11493',
    elset => '372',
    argperigee => '253.8701',
    epoch => '2317.90926415',
    bstar => '0.00044152',
    number => '57',
    raan => '328.9299',
    mm1 => '3.187e-05',
    meanmotion => '14.78611555',
    mm2 => '0',
    id => '26545',
    meananomaly => '105.6081',
    eccentricity => '0.005753',
    inclination => '64.5596'
  },
  'SO-42' => {
    orbit => '11480',
    elset => '615',
    argperigee => '255.0188',
    epoch => '2317.53786645',
    bstar => '0.00040149',
    number => '57',
    raan => '333.6909',
    mm1 => '2.822e-05',
    meanmotion => '14.77559655',
    mm2 => '0',
    id => '26549',
    meananomaly => '104.4089',
    eccentricity => '0.0061609',
    inclination => '64.5522'
  },
  'SO-43' => {
    orbit => '6345',
    elset => '529',
    argperigee => '225.1952',
    epoch => '2317.79978498',
    bstar => '0.0011061',
    number => '1043',
    raan => '284.7174',
    mm1 => '0.00173818',
    meanmotion => '15.75728451',
    mm2 => '0',
    id => '26929',
    meananomaly => '134.9195',
    eccentricity => '0.000126',
    inclination => '67.0336'
  },
  'FO-29' => {
    orbit => '30824',
    elset => '555',
    argperigee => '106.9247',
    epoch => '2317.95577495',
    bstar => '0.00012267',
    number => '96046',
    raan => '117.3554',
    mm1 => '8.8e-07',
    meanmotion => '13.52863407',
    mm2 => '0',
    id => '24278',
    meananomaly => '257.0732',
    eccentricity => '0.0351499',
    inclination => '98.5286'
  },
  'AO-16' => {
    orbit => '66866',
    elset => '811',
    argperigee => '132.4484',
    epoch => '2317.63279533',
    bstar => '0.00017644',
    number => '90005',
    raan => '11.9195',
    mm1 => '4.27e-06',
    meanmotion => '14.31414264',
    mm2 => '0',
    id => '20439',
    meananomaly => '227.7685',
    eccentricity => '0.0011497',
    inclination => '98.3326'
  },
  'OKEAN-0' => {
    orbit => '17871',
    elset => '3',
    argperigee => '51.4911',
    epoch => '2317.93997342',
    bstar => '0.00025845',
    number => '99039',
    raan => '3.5286',
    mm1 => '1.59e-05',
    meanmotion => '14.72413348',
    mm2 => '0',
    id => '25860',
    meananomaly => '308.6456',
    eccentricity => '0.0001778',
    inclination => '97.8788'
  },
  'UO-22' => {
    orbit => '59438',
    elset => '681',
    argperigee => '66.7088',
    epoch => '2317.93364738',
    bstar => '0.00028109',
    number => '91050',
    raan => '309.9828',
    mm1 => '8.28e-06',
    meanmotion => '14.39056837',
    mm2 => '0',
    id => '21575',
    meananomaly => '293.5008',
    eccentricity => '0.0008627',
    inclination => '98.1346'
  },
  'AO-37' => {
    orbit => '14641',
    elset => '659',
    argperigee => '201.2414',
    epoch => '2317.209581',
    bstar => '0.00019581',
    number => '4',
    raan => '349.1846',
    mm1 => '5.08e-06',
    meanmotion => '14.35444249',
    mm2 => '0',
    id => '26065',
    meananomaly => '158.7219',
    eccentricity => '0.0037311',
    inclination => '100.227'
  },
  'OKEAN-4' => {
    orbit => '43580',
    elset => '233',
    argperigee => '12.2063',
    epoch => '2317.95019553',
    bstar => '0.00040553',
    number => '94066',
    raan => '58.8004',
    mm1 => '3.147e-05',
    meanmotion => '14.80591035',
    mm2 => '0',
    id => '23317',
    meananomaly => '347.9721',
    eccentricity => '0.0023775',
    inclination => '82.5417'
  },
  'IO-26' => {
    orbit => '47607',
    elset => '295',
    argperigee => '180.5736',
    epoch => '2317.60571881',
    bstar => '0.00018272',
    number => '93061',
    raan => '348.2716',
    mm1 => '4.22e-06',
    meanmotion => '14.29111943',
    mm2 => '0',
    id => '22826',
    meananomaly => '179.5434',
    eccentricity => '0.0008447',
    inclination => '98.289'
  },
  'OO-38' => {
    orbit => '14648',
    elset => '651',
    argperigee => '199.3333',
    epoch => '2317.59952317',
    bstar => '0.00017875',
    number => '4',
    raan => '349.5171',
    mm1 => '4.58e-06',
    meanmotion => '14.35422632',
    mm2 => '0',
    id => '26063',
    meananomaly => '160.6451',
    eccentricity => '0.0036711',
    inclination => '100.2256'
  },
  'PO-34' => {
    orbit => '22290',
    elset => '615',
    argperigee => '20.2674',
    epoch => '2317.76374501',
    bstar => '0.00027305',
    number => '98064',
    raan => '148.3576',
    mm1 => '5.17e-05',
    meanmotion => '15.13222538',
    mm2 => '0',
    id => '25520',
    meananomaly => '339.8178',
    eccentricity => '0.0005919',
    inclination => '28.4588'
  },
  RESURS => {
    orbit => '22578',
    elset => '406',
    argperigee => '51.2346',
    epoch => '2317.94181019',
    bstar => '0.00030275',
    number => '98043',
    raan => '32.5918',
    mm1 => '6.49e-06',
    meanmotion => '14.23808385',
    mm2 => '0',
    id => '25394',
    meananomaly => '308.9026',
    eccentricity => '0.0002183',
    inclination => '98.6431'
  },
  UARS => {
    orbit => '61130',
    elset => '752',
    argperigee => '93.294',
    epoch => '2318.70263257',
    bstar => '0.00018749',
    number => '91063',
    raan => '59.9959',
    mm1 => '2.262e-05',
    meanmotion => '15.02579355',
    mm2 => '0',
    id => '21701',
    meananomaly => '266.8832',
    eccentricity => '0.0006632',
    inclination => '56.9814'
  },
  'KO-23' => {
    orbit => '48186',
    elset => '172',
    argperigee => '295.1596',
    epoch => '2317.85445487',
    bstar => '0.0001',
    number => '92052',
    raan => '328.2715',
    mm1 => '-3.7e-07',
    meanmotion => '12.86403699',
    mm2 => '0',
    id => '22077',
    meananomaly => '64.8027',
    eccentricity => '0.0013492',
    inclination => '66.0883'
  },
  'KO-25' => {
    orbit => '44442',
    elset => '353',
    argperigee => '156.1586',
    epoch => '2318.65940063',
    bstar => '0.00015594',
    number => '93061',
    raan => '349.5351',
    mm1 => '3.57e-06',
    meanmotion => '14.29462173',
    mm2 => '0',
    id => '22828',
    meananomaly => '204.0052',
    eccentricity => '0.0009803',
    inclination => '98.2827'
  }
);
1;
